satname,norad_id,inclination_deg,eccentricity,mean_motion_rev_per_day,perigee_km,apogee_km,l1,l2
STARLINK-1329,45531,53.0543,0.00014,15.06410146,546.2109176394097,548.1500065287928,1 45531U 20025A   25272.79895109  .00001323  00000+0  10770-3 0  9999,2 45531  53.0543 108.8842 0001400  92.2827 267.8322 15.06410146300849
STARLINK-1338,45532,53.0534,0.0001354,15.06409631,546.2443522695794,548.1197286657389,1 45532U 20025B   25272.74366590  .00003684  00000+0  26604-3 0  9997,2 45532  53.0534 109.1315 0001354  79.7856 280.3285 15.06409631300833
STARLINK-1350,45535,53.0742,0.0001863,15.31323815,470.5854579545521,473.13776743764174,1 45535U 20025E   25272.84024648  .00023339  00000+0  77038-3 0  9992,2 45535  53.0742  65.8531 0001863 132.0167 228.0992 15.31323815301470
STARLINK-1362,45538,53.053,0.0001447,15.06420676,546.1461009340146,548.1502784679151,1 45538U 20025H   25272.70950897  .00005058  00000+0  35798-3 0  9999,2 45538  53.0530 109.0040 0001447  89.6625 270.4530 15.06420676300831
STARLINK-1368,45540,53.0531,0.0001343,15.06405394,546.2649540633729,548.1250982455977,1 45540U 20025K   25272.58149073  .00002188  00000+0  16574-3 0  9996,2 45540  53.0531 109.8615 0001343  86.5237 273.5905 15.06405394300808
STARLINK-1371,45542,53.0541,0.0001279,15.06405363,546.3093711861584,548.0808711427526,1 45542U 20025M   25272.55199670  .00000409  00000+0  46333-4 0  9994,2 45542  53.0541 109.9927 0001279 114.3263 245.7860 15.06405363300802
STARLINK-1372,45543,53.0537,0.0001436,15.06416534,546.1664112969465,548.1553568492518,1 45543U 20025N   25272.78788801 -.00003177  00000+0 -19437-3 0  9991,2 45543  53.0537 108.9334 0001436 109.0357 251.0788 15.06416534299931
STARLINK-1373,45544,53.0531,0.0001448,15.06403619,546.1976773816032,548.2032551118273,1 45544U 20025P   25272.73997457  .00000533  00000+0  54687-4 0  9994,2 45544  53.0531 109.1502 0001448  85.0956 275.0198 15.06403619300830
STARLINK-1294,45551,53.0514,0.0005502,15.54529131,399.7904642921567,407.2530015618686,1 45551U 20025W   25272.91670139  .00219018  00000+0  31813-2 0  9991,2 45551  53.0514  52.8655 0005502 288.3255  82.3926 15.54529131  5850
STARLINK-1323,45553,53.0354,0.0003745,15.9482032,286.31831834270633,291.31186545954097,1 45553U 20025Y   25272.91670139  .00587221  15275-3  14980-2 0  9997,2 45553  53.0354  33.2203 0003745  48.5176 123.9467 15.94820320  5750
STARLINK-1325,45554,53.0613,0.0004934,15.47730643,420.01055506666216,426.7222786384127,1 45554U 20025Z   25272.68545976  .00133993  00000+0  25098-2 0  9993,2 45554  53.0613  46.1175 0004934   0.2938 359.8071 15.47730643301725
STARLINK-1327,45555,53.054,0.0001334,15.06407273,546.2654288064041,548.113105854527,1 45555U 20025AA  25272.64597713  .00002465  00000+0  18427-3 0  9994,2 45555  53.0540  89.5707 0001334  93.9278 266.1863 15.06407273301098
STARLINK-1336,45557,53.0388,0.0001432,15.90378295,300.2669755906945,302.17994442643976,1 45557U 20025AC  25272.91670139  .00547491  00000+0  16475-2 0  9993,2 45557  53.0388  39.0535 0001432 110.6399  39.4433 15.90378295  5997
STARLINK-1342,45558,53.0436,0.0002584,16.03007801,264.3775528705355,267.81129166956543,1 45558U 20025AD  25272.63442687  .00761124  29067-3  12235-2 0  9997,2 45558  53.0436  36.3839 0002584   4.2217 355.8835 16.03007801301835
STARLINK-1356,45564,53.0534,0.0001222,15.06413084,546.325184959439,548.0177303464898,1 45564U 20025AK  25272.64966208 -.00004174  00000+0 -26141-3 0  9996,2 45564  53.0534  89.5503 0001222  96.9031 263.2097 15.06413084301095
STARLINK-1357,45565,53.0621,0.0007435,15.26643806,480.75045296272856,490.9572073271547,1 45565U 20025AL  25272.76646897  .00116616  00000+0  43314-2 0  9992,2 45565  53.0621  79.2032 0007435 155.8223 204.3125 15.26643806301251
STARLINK-1361,45567,53.0536,0.0001345,15.06397873,546.2866166367612,548.1495371524452,1 45567U 20025AN  25272.73444878  .00001347  00000+0  10931-3 0  9990,2 45567  53.0536  89.1713 0001345  94.1188 265.9955 15.06397873301110
STARLINK-1363,45568,53.0532,0.000138,15.06413893,546.2132859964913,548.1246704464793,1 45568U 20025AP  25272.81556223  .00003366  00000+0  24468-3 0  9991,2 45568  53.0532  89.0498 0001380  96.0296 264.0851 15.06413893301112
STARLINK-1366,45569,53.0534,0.0001424,15.06405669,546.2080161637459,548.1803504847567,1 45569U 20025AQ  25272.80447958  .00002194  00000+0  16609-3 0  9991,2 45569  53.0534  88.8579 0001424 102.9357 257.1791 15.06405669301114
STARLINK-1376,45570,53.0535,0.0001316,15.0640701,546.2787003383601,548.1014464240743,1 45570U 20025AR  25272.79710573  .00004061  00000+0  29128-3 0  9992,2 45570  53.0535  88.8938 0001316  93.8620 266.2520 15.06407010301110
STARLINK-1320,45572,53.0592,0.0007624,15.37586191,448.04131693619274,458.4578151721116,1 45572U 20025AT  25272.91670139  .00115817  00000+0  30553-2 0  9996,2 45572  53.0592  39.1665 0007624 233.4141 112.2292 15.37586191  5871
STARLINK-1321,45573,53.0547,0.0001373,15.06407053,546.2390942043548,548.1407889825168,1 45573U 20025AU  25272.78329163  .00002921  00000+0  21484-3 0  9995,2 45573  53.0547  78.9551 0001373  82.9322 277.1823 15.06407053300953
STARLINK-1328,45576,53.054,0.0004436,15.57665603,391.41079841424107,397.41940663960395,1 45576U 20025AX  25272.91670139  .00208809  00000+0  27053-2 0  9995,2 45576  53.0540  67.3319 0004436 267.7983  34.6467 15.57665603  5834
STARLINK-1331,45578,53.0549,0.0001252,15.06409404,546.3156861516691,548.049786213609,1 45578U 20025AZ  25272.62847340  .00002161  00000+0  16386-3 0  9996,2 45578  53.0549  79.6468 0001252  82.0426 278.0705 15.06409404301241
STARLINK-1333,45580,53.0536,0.0001427,15.06387311,546.2621953798625,548.2387009575705,1 45580U 20025BB  25272.76763319 -.00002837  00000+0 -17172-3 0  9993,2 45580  53.0536  89.0291 0001427  85.5332 274.5820 15.06387311301114
STARLINK-1335,45581,53.0542,0.0001344,15.06406025,546.2623278781857,548.1238566069806,1 45581U 20025BC  25272.83857488  .00001901  00000+0  14648-3 0  9997,2 45581  53.0542  78.7056 0001344  91.6070 268.5073 15.06406025301264
STARLINK-1337,45582,53.0542,0.0001355,15.06420155,546.2114100952949,548.0881628144243,1 45582U 20025BD  25272.72799208  .00006391  00000+0  44733-3 0  9997,2 45582  53.0542  79.2045 0001355  90.6182 269.4962 15.06420155301249
STARLINK-1347,45586,53.0572,0.0005814,15.26094211,483.51000966118863,491.49337433224264,1 45586U 20025BH  25272.81403780  .00125515  00000+0  47344-2 0  9998,2 45586  53.0572  69.3221 0005814 161.8231 198.2975 15.26094211301382
STARLINK-1360,45588,53.0496,0.0004807,15.68171448,360.8920873465895,367.3741058174428,1 45588U 20025BK  25272.27740736  .00130455  00000+0  11337-2 0  9997,2 45588  53.0496   0.4450 0004807   2.1668 357.9368 15.68171448302319
STARLINK-1364,45589,53.056,0.0001328,15.06382095,546.346741151905,548.186128304169,1 45589U 20025BL  25272.73169179  .00003019  00000+0  22158-3 0  9994,2 45589  53.0560  79.1905 0001328  70.3872 289.7260 15.06382095301247
STARLINK-1365,45590,53.0536,0.0001404,15.06397619,546.2465354078686,548.1911753320564,1 45590U 20025BM  25272.81369530  .00004656  00000+0  33129-3 0  9996,2 45590  53.0536 108.8190 0001404  81.4586 278.6562 15.06397619300854
STARLINK-1443,45660,53.055,0.0001727,15.06360416,546.1368512055578,548.5289085020595,1 45660U 20035D   25272.59994095  .00013210  00000+0  90502-3 0  9994,2 45660  53.0550  69.7788 0001727  99.3678 260.7507 15.06360416294458
STARLINK-1446,45663,53.0297,0.0004269,15.30268764,472.0841518466432,477.93536855049933,1 45663U 20035G   25272.61440281  .00044840  00000+0  15133-2 0  9992,2 45663  53.0297  38.3997 0004269 158.3011 201.8169 15.30268764294892
STARLINK-1448,45665,53.0551,0.0001424,15.06419915,546.1643610608553,548.1366829471226,1 45665U 20035J   25272.73627912  .00003360  00000+0  24424-3 0  9991,2 45665  53.0551  69.1643 0001424  91.4397 268.6755 15.06419915294465
STARLINK-1451,45668,53.0545,0.0001303,15.06393331,546.3296219577933,548.1343731185507,1 45668U 20035M   25271.87750920 -.00000279  00000+0  16626-6 0  9999,2 45668  53.0545  73.3381 0001303  97.1145 262.9992 15.06393331294347
STARLINK-1452,45669,53.0444,0.0005424,15.22823741,493.5988498394845,501.05735438225474,1 45669U 20035N   25272.70477573  .00126054  00000+0  52416-2 0  9995,2 45669  53.0444  54.7341 0005424 248.9893 111.0523 15.22823741294670
STARLINK-1453,45670,53.0549,0.0001339,15.06425461,546.20623101616,548.0608184626853,1 45670U 20035P   25272.61740308  .00015398  00000+0  10496-2 0  9996,2 45670  53.0549  39.7021 0001339  80.8213 279.2928 15.06425461294761
STARLINK-1454,45671,53.055,0.0001369,15.06414762,546.2182408800518,548.1143889276727,1 45671U 20035Q   25272.76209117  .00003836  00000+0  27620-3 0  9993,2 45671  53.0550  69.0519 0001369  85.5889 274.5257 15.06414762294468
STARLINK-1456,45673,53.0549,0.0001413,15.06417969,546.1779421191377,548.1350300583053,1 45673U 20035S   25272.84317344  .00004878  00000+0  34599-3 0  9996,2 45673  53.0549  68.6855 0001413 100.0542 260.0607 15.06417969294499
STARLINK-1457,45674,53.0546,0.0001287,15.06411707,546.2843901601163,548.0669656434093,1 45674U 20035T   25272.65151111  .00005807  00000+0  40829-3 0  9990,2 45674  53.0546  69.5492 0001287  93.3129 266.8007 15.06411707294434
STARLINK-1458,45675,53.0534,0.0001406,15.06421156,546.1730237133042,548.1204134949749,1 45675U 20035U   25272.83948719  .00007176  00000+0  49989-3 0  9996,2 45675  53.0534  68.7023 0001406  80.3597 279.7551 15.06421156294459
STARLINK-1460,45676,53.0563,0.0001247,15.06404752,546.3334046319533,548.0605829300011,1 45676U 20035V   25272.74366046  .00001862  00000+0  14385-3 0  9992,2 45676  53.0563  69.1318 0001247  95.2812 264.8320 15.06404752294432
STARLINK-1392,45677,53.055,0.000134,15.06396427,546.2945105161516,548.150506864481,1 45677U 20035W   25272.82106987  .00003849  00000+0  27716-3 0  9997,2 45677  53.0550  68.7848 0001340  90.5118 269.6024 15.06396427294481
